CCSDS_OMM_VERS = 2.0
CREATION_DATE  = 
ORIGINATOR     = 

OBJECT_NAME    = SL-16 R/B
OBJECT_ID      = 1993-016B
CENTER_NAME    = EARTH
REF_FRAME      = TEME
TIME_SYSTEM    = UTC
MEAN_ELEMENT_THEORY = SGP/SGP4

EPOCH          = 2026-02-11T01:32:01.069728
MEAN_MOTION    = 14.15303050
ECCENTRICITY   = .0010429
INCLINATION    = 71.0061
RA_OF_ASC_NODE = 271.1068
ARG_OF_PERICENTER = 350.2176
MEAN_ANOMALY   = 9.8742

EPHEMERIS_TYPE = 0
CLASSIFICATION_TYPE = U
NORAD_CAT_ID   = 22566
ELEMENT_SET_NO = 999
REV_AT_EPOCH   = 69840
BSTAR          = -.87878098E-4
MEAN_MOTION_DOT = -.219E-5
MEAN_MOTION_DDOT = 0

CCSDS_OMM_VERS = 2.0
CREATION_DATE  = 
ORIGINATOR     = 

OBJECT_NAME    = COSMOS 2242
OBJECT_ID      = 1993-024A
CENTER_NAME    = EARTH
REF_FRAME      = TEME
TIME_SYSTEM    = UTC
MEAN_ELEMENT_THEORY = SGP/SGP4

EPOCH          = 2026-02-11T03:46:50.420928
MEAN_MOTION    = 14.96438446
ECCENTRICITY   = .00174871
INCLINATION    = 82.5190
RA_OF_ASC_NODE = 292.0941
ARG_OF_PERICENTER = 38.8168
MEAN_ANOMALY   = 321.4306

EPHEMERIS_TYPE = 0
CLASSIFICATION_TYPE = U
NORAD_CAT_ID   = 22626
ELEMENT_SET_NO = 999
REV_AT_EPOCH   = 77642
BSTAR          = .20179425E-3
MEAN_MOTION_DOT = .2321E-4
MEAN_MOTION_DDOT = 0

CCSDS_OMM_VERS = 2.0
CREATION_DATE  = 
ORIGINATOR     = 

OBJECT_NAME    = SL-16 R/B
OBJECT_ID      = 1993-059B
CENTER_NAME    = EARTH
REF_FRAME      = TEME
TIME_SYSTEM    = UTC
MEAN_ELEMENT_THEORY = SGP/SGP4

EPOCH          = 2026-02-11T01:54:27.849600
MEAN_MOTION    = 14.17228169
ECCENTRICITY   = .00194855
INCLINATION    = 70.9891
RA_OF_ASC_NODE = 67.2437
ARG_OF_PERICENTER = 253.2008
MEAN_ANOMALY   = 106.6978

EPHEMERIS_TYPE = 0
CLASSIFICATION_TYPE = U
NORAD_CAT_ID   = 22803
ELEMENT_SET_NO = 999
REV_AT_EPOCH   = 67576
BSTAR          = .20435391E-4
MEAN_MOTION_DOT = -.7E-7
MEAN_MOTION_DDOT = 0

CCSDS_OMM_VERS = 2.0
CREATION_DATE  = 
ORIGINATOR     = 

OBJECT_NAME    = ARIANE 40 R/B
OBJECT_ID      = 1993-061H
CENTER_NAME    = EARTH
REF_FRAME      = TEME
TIME_SYSTEM    = UTC
MEAN_ELEMENT_THEORY = SGP/SGP4

EPOCH          = 2026-02-11T03:54:31.432320
MEAN_MOTION    = 14.32846753
ECCENTRICITY   = .00106641
INCLINATION    = 98.4974
RA_OF_ASC_NODE = 111.5664
ARG_OF_PERICENTER = 9.1941
MEAN_ANOMALY   = 350.9437

EPHEMERIS_TYPE = 0
CLASSIFICATION_TYPE = U
NORAD_CAT_ID   = 22830
ELEMENT_SET_NO = 999
REV_AT_EPOCH   = 69030
BSTAR          = .90600285E-4
MEAN_MOTION_DOT = .204E-5
MEAN_MOTION_DDOT = 0

CCSDS_OMM_VERS = 2.0
CREATION_DATE  = 
ORIGINATOR     = 

OBJECT_NAME    = COSMOS 2278
OBJECT_ID      = 1994-023A
CENTER_NAME    = EARTH
REF_FRAME      = TEME
TIME_SYSTEM    = UTC
MEAN_ELEMENT_THEORY = SGP/SGP4

EPOCH          = 2026-02-10T22:26:02.043168
MEAN_MOTION    = 14.14363401
ECCENTRICITY   = .00067226
INCLINATION    = 71.0500
RA_OF_ASC_NODE = 231.0727
ARG_OF_PERICENTER = 64.4778
MEAN_ANOMALY   = 295.7039

EPHEMERIS_TYPE = 0
CLASSIFICATION_TYPE = U
NORAD_CAT_ID   = 23087
ELEMENT_SET_NO = 999
REV_AT_EPOCH   = 64102
BSTAR          = -.6393774E-5
MEAN_MOTION_DOT = -.59E-6
MEAN_MOTION_DDOT = 0

CCSDS_OMM_VERS = 2.0
CREATION_DATE  = 
ORIGINATOR     = 

OBJECT_NAME    = SL-16 R/B
OBJECT_ID      = 1994-023B
CENTER_NAME    = EARTH
REF_FRAME      = TEME
TIME_SYSTEM    = UTC
MEAN_ELEMENT_THEORY = SGP/SGP4

EPOCH          = 2026-02-10T17:03:15.193728
MEAN_MOTION    = 14.15004004
ECCENTRICITY   = .00045071
INCLINATION    = 70.9996
RA_OF_ASC_NODE = 127.5484
ARG_OF_PERICENTER = 310.9775
MEAN_ANOMALY   = 49.0958

EPHEMERIS_TYPE = 0
CLASSIFICATION_TYPE = U
NORAD_CAT_ID   = 23088
ELEMENT_SET_NO = 999
REV_AT_EPOCH   = 64227
BSTAR          = .91477518E-4
MEAN_MOTION_DOT = .129E-5
MEAN_MOTION_DDOT = 0

CCSDS_OMM_VERS = 2.0
CREATION_DATE  = 
ORIGINATOR     = 

OBJECT_NAME    = SL-16 R/B
OBJECT_ID      = 1994-074B
CENTER_NAME    = EARTH
REF_FRAME      = TEME
TIME_SYSTEM    = UTC
MEAN_ELEMENT_THEORY = SGP/SGP4

EPOCH          = 2026-02-11T01:41:30.469056
MEAN_MOTION    = 14.79375744
ECCENTRICITY   = .00055145
INCLINATION    = 97.7145
RA_OF_ASC_NODE = 73.9621
ARG_OF_PERICENTER = 317.9188
MEAN_ANOMALY   = 69.1042

EPHEMERIS_TYPE = 0
CLASSIFICATION_TYPE = U
NORAD_CAT_ID   = 23343
ELEMENT_SET_NO = 999
REV_AT_EPOCH   = 68331
BSTAR          = .76588166E-4
MEAN_MOTION_DOT = .521E-5
MEAN_MOTION_DDOT = 0

CCSDS_OMM_VERS = 2.0
CREATION_DATE  = 
ORIGINATOR     = 

OBJECT_NAME    = SL-16 R/B
OBJECT_ID      = 1994-077B
CENTER_NAME    = EARTH
REF_FRAME      = TEME
TIME_SYSTEM    = UTC
MEAN_ELEMENT_THEORY = SGP/SGP4

EPOCH          = 2026-02-10T10:04:54.806592
MEAN_MOTION    = 14.15557981
ECCENTRICITY   = .00042179
INCLINATION    = 70.9817
RA_OF_ASC_NODE = 49.8586
ARG_OF_PERICENTER = 234.2768
MEAN_ANOMALY   = 125.7963

EPHEMERIS_TYPE = 0
CLASSIFICATION_TYPE = U
NORAD_CAT_ID   = 23405
ELEMENT_SET_NO = 999
REV_AT_EPOCH   = 61237
BSTAR          = .13606235E-3
MEAN_MOTION_DOT = .218E-5
MEAN_MOTION_DDOT = 0

CCSDS_OMM_VERS = 2.0
CREATION_DATE  = 
ORIGINATOR     = 

OBJECT_NAME    = ARIANE 40+ R/B
OBJECT_ID      = 1995-021B
CENTER_NAME    = EARTH
REF_FRAME      = TEME
TIME_SYSTEM    = UTC
MEAN_ELEMENT_THEORY = SGP/SGP4

EPOCH          = 2026-02-11T02:58:45.060960
MEAN_MOTION    = 14.39752661
ECCENTRICITY   = .00062082
INCLINATION    = 98.4553
RA_OF_ASC_NODE = 113.9594
ARG_OF_PERICENTER = 213.2675
MEAN_ANOMALY   = 175.8552

EPHEMERIS_TYPE = 0
CLASSIFICATION_TYPE = U
NORAD_CAT_ID   = 23561
ELEMENT_SET_NO = 999
REV_AT_EPOCH   = 61542
BSTAR          = .11488758E-3
MEAN_MOTION_DOT = .316E-5
MEAN_MOTION_DDOT = 0

CCSDS_OMM_VERS = 2.0
CREATION_DATE  = 
ORIGINATOR     = 

OBJECT_NAME    = SL-16 R/B
OBJECT_ID      = 1995-058B
CENTER_NAME    = EARTH
REF_FRAME      = TEME
TIME_SYSTEM    = UTC
MEAN_ELEMENT_THEORY = SGP/SGP4

EPOCH          = 2026-02-10T23:47:08.204352
MEAN_MOTION    = 14.15493986
ECCENTRICITY   = .00120817
INCLINATION    = 71.0192
RA_OF_ASC_NODE = 236.3075
ARG_OF_PERICENTER = 170.1605
MEAN_ANOMALY   = 189.9757

EPHEMERIS_TYPE = 0
CLASSIFICATION_TYPE = U
NORAD_CAT_ID   = 23705
ELEMENT_SET_NO = 999
REV_AT_EPOCH   = 56407
BSTAR          = .14814576E-3
MEAN_MOTION_DOT = .242E-5
MEAN_MOTION_DDOT = 0

CCSDS_OMM_VERS = 2.0
CREATION_DATE  = 
ORIGINATOR     = 

OBJECT_NAME    = SL-16 R/B
OBJECT_ID      = 1996-051B
CENTER_NAME    = EARTH
REF_FRAME      = TEME
TIME_SYSTEM    = UTC
MEAN_ELEMENT_THEORY = SGP/SGP4

EPOCH          = 2026-02-10T21:35:38.447520
MEAN_MOTION    = 14.12407937
ECCENTRICITY   = .0017372
INCLINATION    = 70.7565
RA_OF_ASC_NODE = 231.9432
ARG_OF_PERICENTER = 185.7469
MEAN_ANOMALY   = 174.3454

EPHEMERIS_TYPE = 0
CLASSIFICATION_TYPE = U
NORAD_CAT_ID   = 24298
ELEMENT_SET_NO = 999
REV_AT_EPOCH   = 51786
BSTAR          = .81962332E-4
MEAN_MOTION_DOT = .102E-5
MEAN_MOTION_DDOT = 0

CCSDS_OMM_VERS = 2.0
CREATION_DATE  = 
ORIGINATOR     = 

OBJECT_NAME    = ORBVIEW 2 (SEASTAR)
OBJECT_ID      = 1997-037A
CENTER_NAME    = EARTH
REF_FRAME      = TEME
TIME_SYSTEM    = UTC
MEAN_ELEMENT_THEORY = SGP/SGP4

EPOCH          = 2026-02-10T22:20:29.894784
MEAN_MOTION    = 14.35474075
ECCENTRICITY   = .00030097
INCLINATION    = 98.8520
RA_OF_ASC_NODE = 205.5409
ARG_OF_PERICENTER = 126.2534
MEAN_ANOMALY   = 233.8929

EPHEMERIS_TYPE = 0
CLASSIFICATION_TYPE = U
NORAD_CAT_ID   = 24883
ELEMENT_SET_NO = 999
REV_AT_EPOCH   = 50463
BSTAR          = .14416183E-3
MEAN_MOTION_DOT = .368E-5
MEAN_MOTION_DDOT = 0

