SL-16 R/B               
1 22566U 93016B   26042.06390127 -.00000219  00000+0 -87878-4 0  9997
2 22566  71.0061 271.1068 0010429 350.2176   9.8742 14.15303050698402
COSMOS 2242             
1 22626U 93024A   26042.15752802  .00002321  00000+0  20179-3 0  9999
2 22626  82.5190 292.0941 0017487  38.8168 321.4306 14.96438446776427
SL-16 R/B               
1 22803U 93059B   26042.07948900 -.00000007  00000+0  20435-4 0  9997
2 22803  70.9891  67.2437 0019485 253.2008 106.6978 14.17228169675766
ARIANE 40 R/B           
1 22830U 93061H   26042.16286380  .00000204  00000+0  90600-4 0  9996
2 22830  98.4974 111.5664 0010664   9.1941 350.9437 14.32846753690305
COSMOS 2278             
1 23087U 94023A   26041.93474587 -.00000059  00000+0 -63938-5 0  9997
2 23087  71.0500 231.0727 0006722  64.4778 295.7039 14.14363401641025
SL-16 R/B               
1 23088U 94023B   26041.71059252  .00000129  00000+0  91478-4 0  9997
2 23088  70.9996 127.5484 0004507 310.9775  49.0958 14.15004004642277
SL-16 R/B               
1 23343U 94074B   26042.07049154  .00000521  00000+0  76588-4 0  9998
2 23343  97.7145  73.9621 0005514 317.9188  69.1042 14.79375744683314
SL-16 R/B               
1 23405U 94077B   26041.42007878  .00000218  00000+0  13606-3 0  9999
2 23405  70.9817  49.8586 0004217 234.2768 125.7963 14.15557981612372
ARIANE 40+ R/B          
1 23561U 95021B   26042.12413265  .00000316  00000+0  11489-3 0  9997
2 23561  98.4553 113.9594 0006208 213.2675 175.8552 14.39752661615422
SL-16 R/B               
1 23705U 95058B   26041.99106718  .00000242  00000+0  14815-3 0  9997
2 23705  71.0192 236.3075 0012081 170.1605 189.9757 14.15493986564075
SL-16 R/B               
1 24298U 96051B   26041.89975055  .00000102  00000+0  81962-4 0  9999
2 24298  70.7565 231.9432 0017372 185.7469 174.3454 14.12407937517864
ORBVIEW 2 (SEASTAR)     
1 24883U 97037A   26041.93090156  .00000368  00000+0  14416-3 0  9992
2 24883  98.8520 205.5409 0003009 126.2534 233.8929 14.35474075504633
